ONEWEB-0267             
1 48985U 21060U   25338.28455472  .00000004  00000+0 -21946-4 0  9991
2 48985  87.9037 267.5825 0002021  75.3880 284.7475 13.16596504213947
ONEWEB-0268             
1 48986U 21060V   25338.25289724  .00000187  00000+0  45652-3 0  9994
2 48986  87.9038 267.5973 0001775  78.0373 282.0957 13.16595486214209
ONEWEB-0269             
1 48987U 21060W   25338.30989140 -.00000029  00000+0 -10956-3 0  9996
2 48987  87.9028 267.6085 0001680  81.5743 278.5578 13.16595613213984
ONEWEB-0270             
1 48988U 21060X   25338.25131427  .00000132  00000+0  31135-3 0  9993
2 48988  87.9038 267.5992 0002080  66.6757 293.4592 13.16595312214019
ONEWEB-0271             
1 48989U 21060Y   25338.31465134  .00000093  00000+0  20881-3 0  9998
2 48989  87.9042 267.5748 0002024  74.0964 286.0390 13.16594085214026
ONEWEB-0272             
1 48990U 21060Z   25338.26081876  .00000193  00000+0  47051-3 0  9990
2 48990  87.9029 267.6027 0001996  80.7403 279.3954 13.16595001213965
ONEWEB-0273             
1 48991U 21060AA  25338.28297932  .00000009  00000+0 -10663-4 0  9992
2 48991  87.9041 267.5925 0001920  71.9035 288.2305 13.16595542213943
ONEWEB-0274             
1 48992U 21060AB  25338.23231377  .00000038  00000+0  65073-4 0  9995
2 48992  87.9028 267.6261 0001935  85.5164 274.6188 13.16594045213971
